ORBCOMM FM24            
1 25478U 98053D   24301.42895785  .00005424  00000+0  18677-2 0  9994
2 25478  45.0074 291.7353 0000788 274.0545  86.0212 14.36768196363954
ORBCOMM FM25            
1 25479U 98053E   24301.95352334  .00005606  00000+0  19291-2 0  9996
2 25479  45.0068 287.5065 0002443 189.0918 170.9886 14.36757206364322
ORBCOMM FM26            
1 25480U 98053F   24301.96519561  .00005192  00000+0  18166-2 0  9996
2 25480  45.0060 282.3854 0004925 201.6271 158.4369 14.36024466364259
ORBCOMM FM27            
1 25481U 98053G   24301.66485189  .00005927  00000+0  20372-2 0  9990
2 25481  45.0049 289.1278 0002182 304.4734  55.5907 14.36745064364216
ORBCOMM FM28            
1 25482U 98053H   24301.88235205  .00005815  00000+0  19858-2 0  9990
2 25482  45.0046 226.0460 0003258 230.4896 129.5664 14.37088788364923
ORBCOMM FM30            
1 25980U 99065A   24301.91074704  .00005063  00000+0  17675-2 0  9996
2 25980  45.0299 108.3352 0006119 274.0295  85.9853 14.36166423301045
ORBCOMM FM31            
1 25981U 99065B   24301.87782411  .00005494  00000+0  19154-2 0  9995
2 25981  45.0214 102.0770 0003141 289.7917  70.2592 14.36138005300595
ORBCOMM FM32            
1 25982U 99065C   24301.90739038  .00005567  00000+0  19782-2 0  9995
2 25982  45.0138 116.9372 0004991 301.0176  59.0181 14.35159989301214
