<?xml version="1.0" encoding="UTF-8"?>
<ndm xmlns:xsi="http://www.w3.org/2001/XMLSchema-instance" xsi:noNamespaceSchemaLocation="https://sanaregistry.org/r/ndmxml_unqualified/ndmxml-2.0.0-master-2.0.xsd">
<omm id="CCSDS_OMM_VERS" version="2.0">
<header><CREATION_DATE/><ORIGINATOR/></header><body><segment><metadata><OBJECT_NAME>ORBCOMM FM24</OBJECT_NAME><OBJECT_ID>1998-053D</OBJECT_ID><CENTER_NAME>EARTH</CENTER_NAME><REF_FRAME>TEME</REF_FRAME><TIME_SYSTEM>UTC</TIME_SYSTEM><MEAN_ELEMENT_THEORY>SGP4</MEAN_ELEMENT_THEORY></metadata><data><meanElements><EPOCH>2024-10-27T10:17:41.958240</EPOCH><MEAN_MOTION>14.36768196</MEAN_MOTION><ECCENTRICITY>.0000788</ECCENTRICITY><INCLINATION>45.0074</INCLINATION><RA_OF_ASC_NODE>291.7353</RA_OF_ASC_NODE><ARG_OF_PERICENTER>274.0545</ARG_OF_PERICENTER><MEAN_ANOMALY>86.0212</MEAN_ANOMALY></meanElements><tleParameters><EPHEMERIS_TYPE>0</EPHEMERIS_TYPE><CLASSIFICATION_TYPE>U</CLASSIFICATION_TYPE><NORAD_CAT_ID>25478</NORAD_CAT_ID><ELEMENT_SET_NO>999</ELEMENT_SET_NO><REV_AT_EPOCH>36395</REV_AT_EPOCH><BSTAR>.18677E-2</BSTAR><MEAN_MOTION_DOT>.5424E-4</MEAN_MOTION_DOT><MEAN_MOTION_DDOT>0</MEAN_MOTION_DDOT></tleParameters></data></segment></body></omm>
<omm id="CCSDS_OMM_VERS" version="2.0">
<header><CREATION_DATE/><ORIGINATOR/></header><body><segment><metadata><OBJECT_NAME>ORBCOMM FM25</OBJECT_NAME><OBJECT_ID>1998-053E</OBJECT_ID><CENTER_NAME>EARTH</CENTER_NAME><REF_FRAME>TEME</REF_FRAME><TIME_SYSTEM>UTC</TIME_SYSTEM><MEAN_ELEMENT_THEORY>SGP4</MEAN_ELEMENT_THEORY></metadata><data><meanElements><EPOCH>2024-10-27T22:53:04.416576</EPOCH><MEAN_MOTION>14.36757206</MEAN_MOTION><ECCENTRICITY>.0002443</ECCENTRICITY><INCLINATION>45.0068</INCLINATION><RA_OF_ASC_NODE>287.5065</RA_OF_ASC_NODE><ARG_OF_PERICENTER>189.0918</ARG_OF_PERICENTER><MEAN_ANOMALY>170.9886</MEAN_ANOMALY></meanElements><tleParameters><EPHEMERIS_TYPE>0</EPHEMERIS_TYPE><CLASSIFICATION_TYPE>U</CLASSIFICATION_TYPE><NORAD_CAT_ID>25479</NORAD_CAT_ID><ELEMENT_SET_NO>999</ELEMENT_SET_NO><REV_AT_EPOCH>36432</REV_AT_EPOCH><BSTAR>.19291E-2</BSTAR><MEAN_MOTION_DOT>.5606E-4</MEAN_MOTION_DOT><MEAN_MOTION_DDOT>0</MEAN_MOTION_DDOT></tleParameters></data></segment></body></omm>
<omm id="CCSDS_OMM_VERS" version="2.0">
<header><CREATION_DATE/><ORIGINATOR/></header><body><segment><metadata><OBJECT_NAME>ORBCOMM FM26</OBJECT_NAME><OBJECT_ID>1998-053F</OBJECT_ID><CENTER_NAME>EARTH</CENTER_NAME><REF_FRAME>TEME</REF_FRAME><TIME_SYSTEM>UTC</TIME_SYSTEM><MEAN_ELEMENT_THEORY>SGP4</MEAN_ELEMENT_THEORY></metadata><data><meanElements><EPOCH>2024-10-27T23:09:52.900704</EPOCH><MEAN_MOTION>14.36024466</MEAN_MOTION><ECCENTRICITY>.0004925</ECCENTRICITY><INCLINATION>45.0060</INCLINATION><RA_OF_ASC_NODE>282.3854</RA_OF_ASC_NODE><ARG_OF_PERICENTER>201.6271</ARG_OF_PERICENTER><MEAN_ANOMALY>158.4369</MEAN_ANOMALY></meanElements><tleParameters><EPHEMERIS_TYPE>0</EPHEMERIS_TYPE><CLASSIFICATION_TYPE>U</CLASSIFICATION_TYPE><NORAD_CAT_ID>25480</NORAD_CAT_ID><ELEMENT_SET_NO>999</ELEMENT_SET_NO><REV_AT_EPOCH>36425</REV_AT_EPOCH><BSTAR>.18166E-2</BSTAR><MEAN_MOTION_DOT>.5192E-4</MEAN_MOTION_DOT><MEAN_MOTION_DDOT>0</MEAN_MOTION_DDOT></tleParameters></data></segment></body></omm>
<omm id="CCSDS_OMM_VERS" version="2.0">
<header><CREATION_DATE/><ORIGINATOR/></header><body><segment><metadata><OBJECT_NAME>ORBCOMM FM27</OBJECT_NAME><OBJECT_ID>1998-053G</OBJECT_ID><CENTER_NAME>EARTH</CENTER_NAME><REF_FRAME>TEME</REF_FRAME><TIME_SYSTEM>UTC</TIME_SYSTEM><MEAN_ELEMENT_THEORY>SGP4</MEAN_ELEMENT_THEORY></metadata><data><meanElements><EPOCH>2024-10-27T15:57:23.203296</EPOCH><MEAN_MOTION>14.36745064</MEAN_MOTION><ECCENTRICITY>.0002182</ECCENTRICITY><INCLINATION>45.0049</INCLINATION><RA_OF_ASC_NODE>289.1278</RA_OF_ASC_NODE><ARG_OF_PERICENTER>304.4734</ARG_OF_PERICENTER><MEAN_ANOMALY>55.5907</MEAN_ANOMALY></meanElements><tleParameters><EPHEMERIS_TYPE>0</EPHEMERIS_TYPE><CLASSIFICATION_TYPE>U</CLASSIFICATION_TYPE><NORAD_CAT_ID>25481</NORAD_CAT_ID><ELEMENT_SET_NO>999</ELEMENT_SET_NO><REV_AT_EPOCH>36421</REV_AT_EPOCH><BSTAR>.20372E-2</BSTAR><MEAN_MOTION_DOT>.5927E-4</MEAN_MOTION_DOT><MEAN_MOTION_DDOT>0</MEAN_MOTION_DDOT></tleParameters></data></segment></body></omm>
<omm id="CCSDS_OMM_VERS" version="2.0">
<header><CREATION_DATE/><ORIGINATOR/></header><body><segment><metadata><OBJECT_NAME>ORBCOMM FM28</OBJECT_NAME><OBJECT_ID>1998-053H</OBJECT_ID><CENTER_NAME>EARTH</CENTER_NAME><REF_FRAME>TEME</REF_FRAME><TIME_SYSTEM>UTC</TIME_SYSTEM><MEAN_ELEMENT_THEORY>SGP4</MEAN_ELEMENT_THEORY></metadata><data><meanElements><EPOCH>2024-10-27T21:10:35.217120</EPOCH><MEAN_MOTION>14.37088788</MEAN_MOTION><ECCENTRICITY>.0003258</ECCENTRICITY><INCLINATION>45.0046</INCLINATION><RA_OF_ASC_NODE>226.0460</RA_OF_ASC_NODE><ARG_OF_PERICENTER>230.4896</ARG_OF_PERICENTER><MEAN_ANOMALY>129.5664</MEAN_ANOMALY></meanElements><tleParameters><EPHEMERIS_TYPE>0</EPHEMERIS_TYPE><CLASSIFICATION_TYPE>U</CLASSIFICATION_TYPE><NORAD_CAT_ID>25482</NORAD_CAT_ID><ELEMENT_SET_NO>999</ELEMENT_SET_NO><REV_AT_EPOCH>36492</REV_AT_EPOCH><BSTAR>.19858E-2</BSTAR><MEAN_MOTION_DOT>.5815E-4</MEAN_MOTION_DOT><MEAN_MOTION_DDOT>0</MEAN_MOTION_DDOT></tleParameters></data></segment></body></omm>
<omm id="CCSDS_OMM_VERS" version="2.0">
<header><CREATION_DATE/><ORIGINATOR/></header><body><segment><metadata><OBJECT_NAME>ORBCOMM FM30</OBJECT_NAME><OBJECT_ID>1999-065A</OBJECT_ID><CENTER_NAME>EARTH</CENTER_NAME><REF_FRAME>TEME</REF_FRAME><TIME_SYSTEM>UTC</TIME_SYSTEM><MEAN_ELEMENT_THEORY>SGP4</MEAN_ELEMENT_THEORY></metadata><data><meanElements><EPOCH>2024-10-27T21:51:28.544256</EPOCH><MEAN_MOTION>14.36166423</MEAN_MOTION><ECCENTRICITY>.0006119</ECCENTRICITY><INCLINATION>45.0299</INCLINATION><RA_OF_ASC_NODE>108.3352</RA_OF_ASC_NODE><ARG_OF_PERICENTER>274.0295</ARG_OF_PERICENTER><MEAN_ANOMALY>85.9853</MEAN_ANOMALY></meanElements><tleParameters><EPHEMERIS_TYPE>0</EPHEMERIS_TYPE><CLASSIFICATION_TYPE>U</CLASSIFICATION_TYPE><NORAD_CAT_ID>25980</NORAD_CAT_ID><ELEMENT_SET_NO>999</ELEMENT_SET_NO><REV_AT_EPOCH>30104</REV_AT_EPOCH><BSTAR>.17675E-2</BSTAR><MEAN_MOTION_DOT>.5063E-4</MEAN_MOTION_DOT><MEAN_MOTION_DDOT>0</MEAN_MOTION_DDOT></tleParameters></data></segment></body></omm>
<omm id="CCSDS_OMM_VERS" version="2.0">
<header><CREATION_DATE/><ORIGINATOR/></header><body><segment><metadata><OBJECT_NAME>ORBCOMM FM31</OBJECT_NAME><OBJECT_ID>1999-065B</OBJECT_ID><CENTER_NAME>EARTH</CENTER_NAME><REF_FRAME>TEME</REF_FRAME><TIME_SYSTEM>UTC</TIME_SYSTEM><MEAN_ELEMENT_THEORY>SGP4</MEAN_ELEMENT_THEORY></metadata><data><meanElements><EPOCH>2024-10-27T21:04:04.003104</EPOCH><MEAN_MOTION>14.36138005</MEAN_MOTION><ECCENTRICITY>.0003141</ECCENTRICITY><INCLINATION>45.0214</INCLINATION><RA_OF_ASC_NODE>102.0770</RA_OF_ASC_NODE><ARG_OF_PERICENTER>289.7917</ARG_OF_PERICENTER><MEAN_ANOMALY>70.2592</MEAN_ANOMALY></meanElements><tleParameters><EPHEMERIS_TYPE>0</EPHEMERIS_TYPE><CLASSIFICATION_TYPE>U</CLASSIFICATION_TYPE><NORAD_CAT_ID>25981</NORAD_CAT_ID><ELEMENT_SET_NO>999</ELEMENT_SET_NO><REV_AT_EPOCH>30059</REV_AT_EPOCH><BSTAR>.19154E-2</BSTAR><MEAN_MOTION_DOT>.5494E-4</MEAN_MOTION_DOT><MEAN_MOTION_DDOT>0</MEAN_MOTION_DDOT></tleParameters></data></segment></body></omm>
<omm id="CCSDS_OMM_VERS" version="2.0">
<header><CREATION_DATE/><ORIGINATOR/></header><body><segment><metadata><OBJECT_NAME>ORBCOMM FM32</OBJECT_NAME><OBJECT_ID>1999-065C</OBJECT_ID><CENTER_NAME>EARTH</CENTER_NAME><REF_FRAME>TEME</REF_FRAME><TIME_SYSTEM>UTC</TIME_SYSTEM><MEAN_ELEMENT_THEORY>SGP4</MEAN_ELEMENT_THEORY></metadata><data><meanElements><EPOCH>2024-10-27T21:46:38.528832</EPOCH><MEAN_MOTION>14.35159989</MEAN_MOTION><ECCENTRICITY>.0004991</ECCENTRICITY><INCLINATION>45.0138</INCLINATION><RA_OF_ASC_NODE>116.9372</RA_OF_ASC_NODE><ARG_OF_PERICENTER>301.0176</ARG_OF_PERICENTER><MEAN_ANOMALY>59.0181</MEAN_ANOMALY></meanElements><tleParameters><EPHEMERIS_TYPE>0</EPHEMERIS_TYPE><CLASSIFICATION_TYPE>U</CLASSIFICATION_TYPE><NORAD_CAT_ID>25982</NORAD_CAT_ID><ELEMENT_SET_NO>999</ELEMENT_SET_NO><REV_AT_EPOCH>30121</REV_AT_EPOCH><BSTAR>.19782E-2</BSTAR><MEAN_MOTION_DOT>.5567E-4</MEAN_MOTION_DOT><MEAN_MOTION_DDOT>0</MEAN_MOTION_DDOT></tleParameters></data></segment></body></omm>

</ndm>
